{
  "name": "SATGUS",
  "line1": "1 62713U 25009DJ  26155.66521709  .00007579  00000+0  59703-3 0  9994",
  "line2": "2 62713  97.6953 237.1631 0009007 154.1800 205.9875 15.01042199 75682",
  "fetched_at": "2026-06-05T00:49:01.279348+00:00"
}